[{"OBJECT_NAME":"GRUS-1A","OBJECT_ID":"2018-111Q","EPOCH":"2026-03-09T23:18:05.956128","MEAN_MOTION":14.98893897,"ECCENTRICITY":0.00097781,"INCLINATION":97.4655,"RA_OF_ASC_NODE":300.3513,"ARG_OF_PERICENTER":128.8058,"MEAN_ANOMALY":231.404,"EPHEMERIS_TYPE":0,"CLASSIFICATION_TYPE":"U","NORAD_CAT_ID":43890,"ELEMENT_SET_NO":999,"REV_AT_EPOCH":39284,"BSTAR":0.00022419467,"MEAN_MOTION_DOT":2.655e-5,"MEAN_MOTION_DDOT":0},{"OBJECT_NAME":"STARLINK-34646","OBJECT_ID":"2025-150G","EPOCH":"2026-03-09T16:00:03.000096","MEAN_MOTION":14.98326066,"ECCENTRICITY":0.00033275,"INCLINATION":70.001,"RA_OF_ASC_NODE":134.5975,"ARG_OF_PERICENTER":275.9537,"MEAN_ANOMALY":355.8693,"EPHEMERIS_TYPE":0,"CLASSIFICATION_TYPE":"U","NORAD_CAT_ID":64796,"ELEMENT_SET_NO":999,"REV_AT_EPOCH":562,"BSTAR":0.0016122573,"MEAN_MOTION_DOT":0.00019195,"MEAN_MOTION_DDOT":0}]
